[{"OBJECT_NAME":"ALOS (DAICHI)","OBJECT_ID":"2006-002A","EPOCH":"2026-04-03T21:28:41.281536","MEAN_MOTION":14.69893925,"ECCENTRICITY":0.00011077,"INCLINATION":98.1261,"RA_OF_ASC_NODE":49.732,"ARG_OF_PERICENTER":115.1518,"MEAN_ANOMALY":244.9803,"EPHEMERIS_TYPE":0,"CLASSIFICATION_TYPE":"U","NORAD_CAT_ID":28931,"ELEMENT_SET_NO":999,"REV_AT_EPOCH":7718,"BSTAR":0.00043921805,"MEAN_MOTION_DOT":2.578e-5,"MEAN_MOTION_DDOT":0},{"OBJECT_NAME":"H-2A R/B","OBJECT_ID":"2006-002B","EPOCH":"2026-04-04T00:13:14.596608","MEAN_MOTION":15.17034066,"ECCENTRICITY":0.00524658,"INCLINATION":98.2464,"RA_OF_ASC_NODE":243.2285,"ARG_OF_PERICENTER":154.651,"MEAN_ANOMALY":205.7312,"EPHEMERIS_TYPE":0,"CLASSIFICATION_TYPE":"U","NORAD_CAT_ID":28932,"ELEMENT_SET_NO":999,"REV_AT_EPOCH":9827,"BSTAR":0.00090235935,"MEAN_MOTION_DOT":0.00018444,"MEAN_MOTION_DDOT":0},{"OBJECT_NAME":"RESURS-DK 1","OBJECT_ID":"2006-021A","EPOCH":"2026-04-04T06:09:01.288224","MEAN_MOTION":15.12909449,"ECCENTRICITY":0.00019497,"INCLINATION":69.9333,"RA_OF_ASC_NODE":170.8865,"ARG_OF_PERICENTER":35.2722,"MEAN_ANOMALY":324.8572,"EPHEMERIS_TYPE":0,"CLASSIFICATION_TYPE":"U","NORAD_CAT_ID":29228,"ELEMENT_SET_NO":999,"REV_AT_EPOCH":9139,"BSTAR":0.00025534883,"MEAN_MOTION_DOT":4.401e-5,"MEAN_MOTION_DDOT":0},{"OBJECT_NAME":"CZ-4B R/B","OBJECT_ID":"2006-046C","EPOCH":"2026-04-04T03:15:34.249248","MEAN_MOTION":15.17184348,"ECCENTRICITY":0.00332909,"INCLINATION":97.5536,"RA_OF_ASC_NODE":138.9735,"ARG_OF_PERICENTER":176.7207,"MEAN_ANOMALY":183.4251,"EPHEMERIS_TYPE":0,"CLASSIFICATION_TYPE":"U","NORAD_CAT_ID":29507,"ELEMENT_SET_NO":999,"REV_AT_EPOCH":6390,"BSTAR":0.00048931241,"MEAN_MOTION_DOT":9.794e-5,"MEAN_MOTION_DDOT":0},{"OBJECT_NAME":"CZ-2C R/B","OBJECT_ID":"2007-010B","EPOCH":"2026-04-04T07:11:02.548320","MEAN_MOTION":14.20256381,"ECCENTRICITY":0.00583461,"INCLINATION":98.4006,"RA_OF_ASC_NODE":206.2979,"ARG_OF_PERICENTER":218.8344,"MEAN_ANOMALY":140.8634,"EPHEMERIS_TYPE":0,"CLASSIFICATION_TYPE":"U","NORAD_CAT_ID":31114,"ELEMENT_SET_NO":999,"REV_AT_EPOCH":98335,"BSTAR":0.00012362246,"MEAN_MOTION_DOT":2.27e-6,"MEAN_MOTION_DDOT":0},{"OBJECT_NAME":"COSMO-SKYMED 1","OBJECT_ID":"2007-023A","EPOCH":"2026-04-04T06:30:23.796864","MEAN_MOTION":14.96737166,"ECCENTRICITY":0.00015764,"INCLINATION":97.8869,"RA_OF_ASC_NODE":285.5122,"ARG_OF_PERICENTER":99.6691,"MEAN_ANOMALY":260.4708,"EPHEMERIS_TYPE":0,"CLASSIFICATION_TYPE":"U","NORAD_CAT_ID":31598,"ELEMENT_SET_NO":999,"REV_AT_EPOCH":1873,"BSTAR":0.00060265283,"MEAN_MOTION_DOT":6.832e-5,"MEAN_MOTION_DDOT":0},{"OBJECT_NAME":"COSMOS 2428","OBJECT_ID":"2007-029A","EPOCH":"2026-04-04T05:35:56.622336","MEAN_MOTION":14.12949003,"ECCENTRICITY":0.00096986,"INCLINATION":70.9423,"RA_OF_ASC_NODE":149.7324,"ARG_OF_PERICENTER":250.546,"MEAN_ANOMALY":109.4613,"EPHEMERIS_TYPE":0,"CLASSIFICATION_TYPE":"U","NORAD_CAT_ID":31792,"ELEMENT_SET_NO":999,"REV_AT_EPOCH":96770,"BSTAR":2.3011063e-5,"MEAN_MOTION_DOT":-5.0e-8,"MEAN_MOTION_DDOT":0},{"OBJECT_NAME":"SL-16 R/B","OBJECT_ID":"2007-029B","EPOCH":"2026-04-04T07:14:55.901760","MEAN_MOTION":14.14843963,"ECCENTRICITY":0.00029017,"INCLINATION":70.9739,"RA_OF_ASC_NODE":118.5468,"ARG_OF_PERICENTER":276.7049,"MEAN_ANOMALY":161.7644,"EPHEMERIS_TYPE":0,"CLASSIFICATION_TYPE":"U","NORAD_CAT_ID":31793,"ELEMENT_SET_NO":999,"REV_AT_EPOCH":96899,"BSTAR":-2.5566218e-5,"MEAN_MOTION_DOT":-9.7e-7,"MEAN_MOTION_DDOT":0},{"OBJECT_NAME":"KORONAS-FOTON","OBJECT_ID":"2009-003A","EPOCH":"2026-04-04T04:12:05.819904","MEAN_MOTION":15.44071314,"ECCENTRICITY":0.00114464,"INCLINATION":82.4286,"RA_OF_ASC_NODE":249.3643,"ARG_OF_PERICENTER":66.8292,"MEAN_ANOMALY":293.416,"EPHEMERIS_TYPE":0,"CLASSIFICATION_TYPE":"U","NORAD_CAT_ID":33504,"ELEMENT_SET_NO":999,"REV_AT_EPOCH":94967,"BSTAR":0.00049806943,"MEAN_MOTION_DOT":0.00022871,"MEAN_MOTION_DDOT":0},{"OBJECT_NAME":"CZ-2C R/B","OBJECT_ID":"2011-030B","EPOCH":"2026-04-03T21:00:21.301056","MEAN_MOTION":14.81315501,"ECCENTRICITY":0.00509251,"INCLINATION":97.8589,"RA_OF_ASC_NODE":50.643,"ARG_OF_PERICENTER":268.4412,"MEAN_ANOMALY":148.7353,"EPHEMERIS_TYPE":0,"CLASSIFICATION_TYPE":"U","NORAD_CAT_ID":37731,"ELEMENT_SET_NO":999,"REV_AT_EPOCH":79382,"BSTAR":0.00032106651,"MEAN_MOTION_DOT":2.507e-5,"MEAN_MOTION_DDOT":0},{"OBJECT_NAME":"H-2A R/B","OBJECT_ID":"2012-025E","EPOCH":"2026-04-03T21:21:40.447008","MEAN_MOTION":14.95351172,"ECCENTRICITY":0.00432261,"INCLINATION":98.4773,"RA_OF_ASC_NODE":62.9643,"ARG_OF_PERICENTER":229.4419,"MEAN_ANOMALY":130.3033,"EPHEMERIS_TYPE":0,"CLASSIFICATION_TYPE":"U","NORAD_CAT_ID":38341,"ELEMENT_SET_NO":999,"REV_AT_EPOCH":75198,"BSTAR":0.00043150824,"MEAN_MOTION_DOT":4.781e-5,"MEAN_MOTION_DDOT":0},{"OBJECT_NAME":"SHIJIAN-16 (SJ-16)","OBJECT_ID":"2013-057A","EPOCH":"2026-04-04T07:17:49.013664","MEAN_MOTION":14.92440255,"ECCENTRICITY":0.00153518,"INCLINATION":74.9712,"RA_OF_ASC_NODE":136.5979,"ARG_OF_PERICENTER":46.0808,"MEAN_ANOMALY":314.1645,"EPHEMERIS_TYPE":0,"CLASSIFICATION_TYPE":"U","NORAD_CAT_ID":39358,"ELEMENT_SET_NO":999,"REV_AT_EPOCH":67532,"BSTAR":0.00013057768,"MEAN_MOTION_DOT":1.312e-5,"MEAN_MOTION_DDOT":0},{"OBJECT_NAME":"SL-4 R/B","OBJECT_ID":"2014-021B","EPOCH":"2026-04-03T17:57:42.956640","MEAN_MOTION":15.40122549,"ECCENTRICITY":0.00945201,"INCLINATION":51.6063,"RA_OF_ASC_NODE":214.9494,"ARG_OF_PERICENTER":194.4221,"MEAN_ANOMALY":165.4063,"EPHEMERIS_TYPE":0,"CLASSIFICATION_TYPE":"U","NORAD_CAT_ID":39679,"ELEMENT_SET_NO":999,"REV_AT_EPOCH":66013,"BSTAR":0.00054336188,"MEAN_MOTION_DOT":0.0002556,"MEAN_MOTION_DDOT":0},{"OBJECT_NAME":"ALOS-2","OBJECT_ID":"2014-029A","EPOCH":"2026-04-04T06:48:58.768128","MEAN_MOTION":14.79450486,"ECCENTRICITY":0.00019262,"INCLINATION":97.9197,"RA_OF_ASC_NODE":192.5087,"ARG_OF_PERICENTER":98.8518,"MEAN_ANOMALY":261.2912,"EPHEMERIS_TYPE":0,"CLASSIFICATION_TYPE":"U","NORAD_CAT_ID":39766,"ELEMENT_SET_NO":999,"REV_AT_EPOCH":64065,"BSTAR":-5.783421e-6,"MEAN_MOTION_DOT":-9.5e-7,"MEAN_MOTION_DDOT":0},{"OBJECT_NAME":"YAOGAN-29","OBJECT_ID":"2015-069A","EPOCH":"2026-04-04T07:10:08.574240","MEAN_MOTION":14.83026192,"ECCENTRICITY":7.96e-6,"INCLINATION":98.0101,"RA_OF_ASC_NODE":122.7928,"ARG_OF_PERICENTER":182.4683,"MEAN_ANOMALY":177.653,"EPHEMERIS_TYPE":0,"CLASSIFICATION_TYPE":"U","NORAD_CAT_ID":41038,"ELEMENT_SET_NO":999,"REV_AT_EPOCH":55967,"BSTAR":0.00016338106,"MEAN_MOTION_DOT":1.274e-5,"MEAN_MOTION_DDOT":0},{"OBJECT_NAME":"ASTRO-H (HITOMI)","OBJECT_ID":"2016-012A","EPOCH":"2026-04-03T14:52:10.371072","MEAN_MOTION":15.10171847,"ECCENTRICITY":0.0009679,"INCLINATION":30.999,"RA_OF_ASC_NODE":195.6484,"ARG_OF_PERICENTER":222.5414,"MEAN_ANOMALY":137.4474,"EPHEMERIS_TYPE":0,"CLASSIFICATION_TYPE":"U","NORAD_CAT_ID":41337,"ELEMENT_SET_NO":999,"REV_AT_EPOCH":55600,"BSTAR":0.00028817,"MEAN_MOTION_DOT":4.921e-5,"MEAN_MOTION_DDOT":0}]
